[{"OBJECT_NAME":"HERMES-5","OBJECT_ID":"2025-052BQ","EPOCH":"2026-03-09T22:33:51.245280","MEAN_MOTION":15.26210393,"ECCENTRICITY":0.0006071,"INCLINATION":97.4082,"RA_OF_ASC_NODE":324.1247,"ARG_OF_PERICENTER":124.4334,"MEAN_ANOMALY":235.7479,"EPHEMERIS_TYPE":0,"CLASSIFICATION_TYPE":"U","NORAD_CAT_ID":63834,"ELEMENT_SET_NO":999,"REV_AT_EPOCH":5480,"BSTAR":0.00068450239,"MEAN_MOTION_DOT":0.00017673,"MEAN_MOTION_DDOT":0},{"OBJECT_NAME":"SL-3 R\/B","OBJECT_ID":"1982-013B","EPOCH":"2026-03-09T21:53:00.854016","MEAN_MOTION":15.22021316,"ECCENTRICITY":0.00226549,"INCLINATION":81.1762,"RA_OF_ASC_NODE":160.5103,"ARG_OF_PERICENTER":176.767,"MEAN_ANOMALY":183.3713,"EPHEMERIS_TYPE":0,"CLASSIFICATION_TYPE":"U","NORAD_CAT_ID":13068,"ELEMENT_SET_NO":999,"REV_AT_EPOCH":40438,"BSTAR":0.00024250009,"MEAN_MOTION_DOT":5.603e-5,"MEAN_MOTION_DDOT":0}]
